NORAD_CAT_ID,OBJECT_NAME,OBJECT_TYPE,EPOCH,MEAN_MOTION,ECCENTRICITY,INCLINATION,RA_OF_ASC_NODE,ARG_OF_PERICENTER,MEAN_ANOMALY,BSTAR,MEAN_MOTION_DOT,MEAN_MOTION_DDOT,TLE_LINE0,TLE_LINE1,TLE_LINE2,SEMIMAJOR_AXIS,PERIOD,APOGEE,PERIGEE,DECAYED
53819.0,STARLINK-4738,PAYLOAD,2023-09-13 12:07:06,15.08844758,0.0001327,53.2179,61.3086,95.7036,264.4107,0.00012685,1.732e-05,0.0,0 STARLINK-4738,1 53819U 22114B   23256.50493816  .00001732  00000-0  12685-3 0  9998,2 53819  53.2179  61.3086 0001327  95.7036 264.4107 15.08844758 55725,6917.866,95.437,540.649,538.813,0.0
53819.0,STARLINK-4738,PAYLOAD,2023-09-13 18:28:38,15.088528,0.0001317,53.2178,60.119,94.4043,265.71,0.00021424,3.125e-05,0.0,0 STARLINK-4738,1 53819U 22114B   23256.76989410  .00003125  00000-0  21424-3 0  9995,2 53819  53.2178  60.1190 0001317  94.4043 265.7100 15.08852800 55768,6917.841,95.437,540.617,538.795,0.0
53819.0,STARLINK-4738,PAYLOAD,2023-09-14 10:22:30,15.08838079,0.0001473,53.2174,57.1454,82.6396,277.4764,7.9448e-05,9.77e-06,0.0,0 STARLINK-4738,1 53819U 22114B   23257.43230235  .00000977  00000-0  79448-4 0  9996,2 53819  53.2174  57.1454 0001473  82.6396 277.4764 15.08838079 55326,6917.886,95.438,540.77,538.732,0.0
53819.0,STARLINK-4738,PAYLOAD,2023-09-14 16:44:03,15.08834338,0.0001188,53.2173,55.9553,100.5793,259.5333,-7.4551e-06,-4.06e-06,0.0,0 STARLINK-4738,1 53819U 22114B   23257.69726437 -.00000406  00000-0 -74551-5 0  9998,2 53819  53.2173  55.9553 0001188 100.5793 259.5333 15.08834338 55906,6917.898,95.438,540.585,538.941,0.0
53819.0,STARLINK-4738,PAYLOAD,2023-09-15 10:13:18,15.08836706,0.0001354,53.2183,52.6825,94.6744,265.4403,8.8214e-05,1.116e-05,0.0,0 STARLINK-4738,1 53819U 22114B   23258.42590774  .00001116  00000-0  88214-4 0  9990,2 53819  53.2183  52.6825 0001354  94.6744 265.4403 15.08836706 55474,6917.89,95.438,540.692,538.819,0.0
53819.0,STARLINK-4738,PAYLOAD,2023-09-16 10:04:05,15.08842821,0.0001437,53.219,48.2239,83.6792,276.4363,0.00031976,4.805e-05,0.0,0 STARLINK-4738,1 53819U 22114B   23259.41950917  .00004805  00000-0  31976-3 0  9999,2 53819  53.2190  48.2239 0001437  83.6792 276.4363 15.08842821 56164,6917.872,95.437,540.731,538.743,0.0
53819.0,STARLINK-4738,PAYLOAD,2023-09-16 16:25:38,15.08844099,0.0001451,53.2191,47.0345,84.322,275.7938,0.00030005,4.491e-05,0.0,0 STARLINK-4738,1 53819U 22114B   23259.68446892  .00004491  00000-0  30005-3 0  9993,2 53819  53.2191  47.0345 0001451  84.3220 275.7938 15.08844099 55663,6917.868,95.437,540.737,538.729,0.0
53819.0,STARLINK-4738,PAYLOAD,2023-09-17 09:54:52,15.08845396,0.0001436,53.2189,43.7633,84.5129,275.6027,0.00017589,2.513e-05,0.0,0 STARLINK-4738,1 53819U 22114B   23260.41310824  .00002513  00000-0  17589-3 0  9996,2 53819  53.2189  43.7633 0001436  84.5129 275.6027 15.08845396 56318,6917.864,95.437,540.722,538.735,0.0
53819.0,STARLINK-4738,PAYLOAD,2023-09-17 16:16:25,15.08833991,0.0001501,53.2191,42.5732,88.1705,271.9459,0.00064285,9.956e-05,0.0,0 STARLINK-4738,1 53819U 22114B   23260.67807466  .00009956  00000-0  64285-3 0  9990,2 53819  53.2191  42.5732 0001501  88.1705 271.9459 15.08833991 55811,6917.899,95.438,540.802,538.725,0.0
53819.0,STARLINK-4738,PAYLOAD,2023-09-18 12:56:25,15.08840155,0.0001347,53.2184,38.7082,85.9477,274.1669,5.7546e-05,6.28e-06,0.0,0 STARLINK-4738,1 53819U 22114B   23261.53918843  .00000628  00000-0  57546-4 0  9998,2 53819  53.2184  38.7082 0001347  85.9477 274.1669 15.08840155 56489,6917.88,95.438,540.677,538.813,0.0
53819.0,STARLINK-4738,PAYLOAD,2023-09-18 17:42:35,15.08844891,0.000129,53.2192,37.8172,85.7743,274.3396,8.6203e-05,1.084e-05,0.0,0 STARLINK-4738,1 53819U 22114B   23261.73790526  .00001084  00000-0  86203-4 0  9995,2 53819  53.2192  37.8172 0001290  85.7743 274.3396 15.08844891 55972,6917.865,95.437,540.623,538.838,0.0
53819.0,STARLINK-4738,PAYLOAD,2023-09-20 12:38:00,15.08822751,0.0001247,53.2182,29.7881,68.6178,291.4947,-0.0002082,-3.598e-05,0.0,0 STARLINK-4738,1 53819U 22114B   23263.52639883 -.00003598  00000-0 -20820-3 0  9998,2 53819  53.2182  29.7881 0001247  68.6178 291.4947 15.08822751 56246,6917.933,95.439,540.661,538.935,0.0
53819.0,STARLINK-4738,PAYLOAD,2023-09-20 14:13:24,15.08821263,0.0001292,53.2184,29.4906,77.6943,282.4193,-0.00023385,-4.006e-05,0.0,0 STARLINK-4738,1 53819U 22114B   23263.59263991 -.00004006  00000-0 -23385-3 0  9992,2 53819  53.2184  29.4906 0001292  77.6943 282.4193 15.08821263 56793,6917.938,95.439,540.696,538.909,0.0
53819.0,STARLINK-4738,PAYLOAD,2023-09-20 15:48:47,15.08822363,0.0001315,53.2193,29.1936,77.4088,282.7051,-0.00010739,-1.996e-05,0.0,0 STARLINK-4738,1 53819U 22114B   23263.65888878 -.00001996  00000-0 -10739-3 0  9990,2 53819  53.2193  29.1936 0001315  77.4088 282.7051 15.08822363 56267,6917.934,95.439,540.709,538.89,0.0
53819.0,STARLINK-4738,PAYLOAD,2023-09-21 09:18:01,15.08838291,0.000118,53.2188,25.9226,77.2655,282.8469,4.8165e-05,4.79e-06,0.0,0 STARLINK-4738,1 53819U 22114B   23264.38751955  .00000479  00000-0  48165-4 0  9994,2 53819  53.2188  25.9226 0001180  77.2655 282.8469 15.08838291 56378,6917.886,95.438,540.567,538.934,0.0
53819.0,STARLINK-4738,PAYLOAD,2023-09-21 12:28:47,15.08841162,0.0001292,53.2192,25.3284,82.1841,277.9297,0.00012916,1.768e-05,0.0,0 STARLINK-4738,1 53819U 22114B   23264.51999611  .00001768  00000-0  12916-3 0  9998,2 53819  53.2192  25.3284 0001292  82.1841 277.9297 15.08841162 56934,6917.877,95.437,540.636,538.848,0.0
53819.0,STARLINK-4738,PAYLOAD,2023-09-21 15:39:33,15.08850934,0.0001254,53.2184,24.7325,69.3033,290.8093,0.00021828,3.189e-05,0.0,0 STARLINK-4738,1 53819U 22114B   23264.65247227  .00003189  00000-0  21828-3 0  9993,2 53819  53.2184  24.7325 0001254  69.3033 290.8093 15.08850934 56410,6917.847,95.437,540.579,538.844,0.0
53819.0,STARLINK-4738,PAYLOAD,2023-09-22 01:11:52,15.08843738,0.0001387,53.2189,22.9489,74.1913,285.9232,0.00034734,5.245e-05,0.0,0 STARLINK-4738,1 53819U 22114B   23265.04991785  .00005245  00000-0  34734-3 0  9997,2 53819  53.2189  22.9489 0001387  74.1913 285.9232 15.08843738 56474,6917.869,95.437,540.693,538.774,0.0
53819.0,STARLINK-4738,PAYLOAD,2023-09-22 12:19:34,15.08845508,0.0001417,53.2193,20.8683,67.7172,292.397,0.0004217,6.431e-05,0.0,0 STARLINK-4738,1 53819U 22114B   23265.51359840  .00006431  00000-0  42170-3 0  9990,2 53819  53.2193  20.8683 0001417  67.7172 292.3970 15.08845508 57087,6917.864,95.437,540.709,538.748,0.0
53819.0,STARLINK-4738,PAYLOAD,2023-09-22 15:30:20,15.08855349,0.0001406,53.2182,20.2732,66.736,293.378,0.00050808,7.811e-05,0.0,0 STARLINK-4738,1 53819U 22114B   23265.64607487  .00007811  00000-0  50808-3 0  9997,2 53819  53.2182  20.2732 0001406  66.7360 293.3780 15.08855349 57107,6917.833,95.437,540.671,538.726,0.0
53819.0,STARLINK-4738,PAYLOAD,2023-09-23 12:10:21,15.08847981,0.0001622,53.218,16.4066,81.581,278.5366,4.963e-05,5.02e-06,0.0,0 STARLINK-4738,1 53819U 22114B   23266.50719257  .00000502  00000-0  49630-4 0  9994,2 53819  53.2180  16.4066 0001622  81.5810 278.5366 15.08847981 56698,6917.856,95.437,540.843,538.599,0.0
53819.0,STARLINK-4738,PAYLOAD,2023-09-23 13:45:44,15.08847813,0.0001334,53.2181,16.1093,81.6803,278.434,2.5537e-05,1.19e-06,0.0,0 STARLINK-4738,1 53819U 22114B   23266.57343136  .00000119  00000-0  25537-4 0  9994,2 53819  53.2181  16.1093 0001334  81.6803 278.4340 15.08847813 57246,6917.857,95.437,540.644,538.799,0.0
53819.0,STARLINK-4738,PAYLOAD,2023-09-24 10:25:45,15.08844255,0.0001561,53.2184,12.2453,76.8053,283.3113,3.6745e-05,2.97e-06,0.0,0 STARLINK-4738,1 53819U 22114B   23267.43455383  .00000297  00000-0  36745-4 0  9998,2 53819  53.2184  12.2453 0001561  76.8053 283.3113 15.08844255 56835,6917.867,95.437,540.812,538.653,0.0
53819.0,STARLINK-4738,PAYLOAD,2023-09-24 13:36:31,15.08847494,0.0001486,53.2185,11.6506,76.9716,283.1442,5.7509e-05,6.28e-06,0.0,0 STARLINK-4738,1 53819U 22114B   23267.56703186  .00000628  00000-0  57509-4 0  9998,2 53819  53.2185  11.6506 0001486  76.9716 283.1442 15.08847494 57394,6917.857,95.437,540.75,538.694,0.0
53819.0,STARLINK-4738,PAYLOAD,2023-09-25 13:27:18,15.0884988,0.0001401,53.2185,7.1904,89.321,270.7943,0.00024144,3.558e-05,0.0,0 STARLINK-4738,1 53819U 22114B   23268.56063049  .00003558  00000-0  24144-3 0  9999,2 53819  53.2185   7.1904 0001401  89.3210 270.7943 15.08849880 57546,6917.85,95.437,540.684,538.746,0.0
53819.0,STARLINK-4738,PAYLOAD,2023-09-26 10:07:20,15.08831997,0.0001608,53.2201,3.3261,103.4506,256.6665,-6.2904e-06,-3.88e-06,0.0,0 STARLINK-4738,1 53819U 22114B   23269.42176222 -.00000388  00000-0 -62904-5 0  9991,2 53819  53.2201   3.3261 0001608 103.4506 256.6665 15.08831997 57133,6917.905,95.438,540.882,538.657,0.0
53819.0,STARLINK-4738,PAYLOAD,2023-09-26 11:42:43,15.08833294,0.0001685,53.2201,3.0293,105.4365,254.6814,1.7306e-05,-1.3e-07,0.0,0 STARLINK-4738,1 53819U 22114B   23269.48800196 -.00000013  00000-0  17306-4 0  9990,2 53819  53.2201   3.0293 0001685 105.4365 254.6814 15.08833294 57681,6917.901,95.438,540.932,538.6,0.0
53819.0,STARLINK-4738,PAYLOAD,2023-09-26 16:28:52,15.08838283,0.0001515,53.2191,2.1338,96.4073,263.7092,8.6152e-05,1.083e-05,0.0,0 STARLINK-4738,1 53819U 22114B   23269.68672016  .00001083  00000-0  86152-4 0  9992,2 53819  53.2191   2.1338 0001515  96.4073 263.7092 15.08838283 57712,6917.886,95.438,540.799,538.703,0.0
53819.0,STARLINK-4738,PAYLOAD,2023-09-27 09:58:06,15.08848977,0.0001599,53.2185,358.8611,58.6568,301.4581,0.00028389,4.234e-05,0.0,0 STARLINK-4738,1 53819U 22114B   23270.41535877  .00004234  00000-0  28389-3 0  9996,2 53819  53.2185 358.8611 0001599  58.6568 301.4581 15.08848977 57287,6917.853,95.437,540.824,538.612,0.0
53819.0,STARLINK-4738,PAYLOAD,2023-09-27 13:08:53,15.08858611,0.0001482,53.2197,358.2712,82.4307,277.6853,0.00058829,9.092e-05,0.0,0 STARLINK-4738,1 53819U 22114B   23270.54783578  .00009092  00000-0  58829-3 0  9992,2 53819  53.2197 358.2712 0001482  82.4307 277.6853 15.08858611 57847,6917.824,95.436,540.714,538.663,0.0
